[{"OBJECT_NAME":"ONEWEB-0050","OBJECT_ID":"2020-020AF","EPOCH":"2026-03-09T21:25:12.459648","MEAN_MOTION":14.90004194,"ECCENTRICITY":0.00029804,"INCLINATION":88.9205,"RA_OF_ASC_NODE":246.7269,"ARG_OF_PERICENTER":19.3816,"MEAN_ANOMALY":340.7526,"EPHEMERIS_TYPE":0,"CLASSIFICATION_TYPE":"U","NORAD_CAT_ID":45453,"ELEMENT_SET_NO":999,"REV_AT_EPOCH":32559,"BSTAR":0.00024442233,"MEAN_MOTION_DOT":2.377e-5,"MEAN_MOTION_DDOT":0},{"OBJECT_NAME":"AETHER-10","OBJECT_ID":"2026-004U","EPOCH":"2026-03-09T23:23:04.191648","MEAN_MOTION":14.88103238,"ECCENTRICITY":0.0006729,"INCLINATION":97.804,"RA_OF_ASC_NODE":69.2149,"ARG_OF_PERICENTER":90.6423,"MEAN_ANOMALY":269.5564,"EPHEMERIS_TYPE":0,"CLASSIFICATION_TYPE":"U","NORAD_CAT_ID":67381,"ELEMENT_SET_NO":999,"REV_AT_EPOCH":853,"BSTAR":0.00015076297,"MEAN_MOTION_DOT":1.333e-5,"MEAN_MOTION_DDOT":0}]
